{
  "norad_id": 53632,
  "name": "STARLINK-4606",
  "history": [
    {
      "epoch": "2026-03-28T13:20:25.191168Z",
      "apogee_km": 540.5181349250979,
      "perigee_km": 538.8744577338903,
      "latitude_deg": 3.1434289173684975e-05,
      "longitude_deg": 113.33365645973822,
      "height_km": 540.4322116271832,
      "semi_major_axis_km": 6917.833296329493,
      "eccentricity": 0.0001188,
      "inclination_deg": 53.2158,
      "raan_deg": 139.4132,
      "arg_perigee_deg": 78.7813,
      "mean_anomaly_deg": 281.3313,
      "mean_motion_rev_day": 15.08855407
    }
  ]
}